TEVEL2-3                
1 63218U 25052J   26068.64540225  .00020365  00000+0  69446-3 0  9991
2 63218  97.3994 324.7775 0004761 105.7353 254.4413 15.30377031 54855
STARLINK-35333          
1 66182U 25243F   26068.70920853  .00038223  00000+0  12963-2 0  9995
2 66182  53.1580 245.3827 0001120  53.1059 307.0044 15.30193869 20651
