[{"OBJECT_NAME":"TEVEL2-3","OBJECT_ID":"2025-052J","EPOCH":"2026-03-09T15:29:22.754400","MEAN_MOTION":15.30377031,"ECCENTRICITY":0.0004761,"INCLINATION":97.3994,"RA_OF_ASC_NODE":324.7775,"ARG_OF_PERICENTER":105.7353,"MEAN_ANOMALY":254.4413,"EPHEMERIS_TYPE":0,"CLASSIFICATION_TYPE":"U","NORAD_CAT_ID":63218,"ELEMENT_SET_NO":999,"REV_AT_EPOCH":5485,"BSTAR":0.00069446,"MEAN_MOTION_DOT":0.00020365,"MEAN_MOTION_DDOT":0},{"OBJECT_NAME":"STARLINK-35333","OBJECT_ID":"2025-243F","EPOCH":"2026-03-09T17:01:15.616992","MEAN_MOTION":15.30193869,"ECCENTRICITY":0.00011196,"INCLINATION":53.158,"RA_OF_ASC_NODE":245.3827,"ARG_OF_PERICENTER":53.1059,"MEAN_ANOMALY":307.0044,"EPHEMERIS_TYPE":0,"CLASSIFICATION_TYPE":"U","NORAD_CAT_ID":66182,"ELEMENT_SET_NO":999,"REV_AT_EPOCH":2065,"BSTAR":0.0012962691,"MEAN_MOTION_DOT":0.00038223,"MEAN_MOTION_DDOT":0}]
